      2.10          N: GNSS NAV DATA                        RINEX VERSION / TYPE
fic2rin                                 10/30/2023 00:17:51 PGM / RUN BY / DATE
                                                            END OF HEADER
13 23 10 29 20  0  0.0  .589526258409D-03  .420641299570D-11  .000000000000D+00
     .130000000000D+02 -.903125000000D+01  .487020286350D-08 -.226907084432D+01
    -.651925802231D-06  .765096338000D-02  .465102493763D-05  .515365185547D+04
     .720000000000D+05  .949949026108D-07  .173094147447D+01 -.502914190292D-07
     .969953484605D+00  .292656250000D+03  .951004811430D+00 -.805640701026D-08
     .635740766869D-10  .100000000000D+01  .228600000000D+04  .000000000000D+00
     .240000000000D+01  .000000000000D+00 -.116415321827D-07  .130000000000D+02
     .648000000000D+05  .400000000000D+01
8  23 10 29 20  0  0.0 -.149573199451D-03 -.193267624127D-11  .000000000000D+00
     .290000000000D+02  .202500000000D+02  .489806116677D-08 -.192870868973D+01
     .110082328320D-05  .879808061291D-02  .238418579102D-06  .515377054214D+04
     .720000000000D+05  .484287738800D-07 -.157988796767D+01 -.894069671631D-07
     .956045389299D+00  .373781250000D+03  .273860915246D+00 -.855892794227D-08
     .764317551180D-10  .100000000000D+01  .228600000000D+04  .000000000000D+00
     .240000000000D+01  .000000000000D+00  .512227416039D-08  .290000000000D+02
     .648000000000D+05  .400000000000D+01
9  23 10 29 20  0  0.0 -.183098018169D-04  .110276232590D-10  .000000000000D+00
     .550000000000D+02  .565625000000D+01  .522664628223D-08 -.139968638283D+01
     .404193997383D-06  .295147229917D-02  .477582216263D-05  .515377091789D+04
     .720000000000D+05 -.298023223877D-07  .156815771851D+01  .204890966415D-07
     .956520425132D+00  .291437500000D+03  .197205668305D+01 -.835927676886D-08
     .210008747707D-09  .100000000000D+01  .228600000000D+04  .000000000000D+00
     .240000000000D+01  .000000000000D+00  .931322574615D-09  .550000000000D+02
     .648000000000D+05  .400000000000D+01
7  23 10 29 20  0  0.0  .272840261459D-04 -.100044417195D-10  .000000000000D+00
     .520000000000D+02 -.172187500000D+02  .486555981295D-08  .151962910802D+01
    -.892207026482D-06  .176169291371D-01  .108089298010D-04  .515371152878D+04
     .720000000000D+05 -.430271029472D-06  .264040291028D+01 -.149011611938D-07
     .950574960748D+00  .172250000000D+03 -.216880960893D+01 -.819534136886D-08
    -.603596570791D-09  .100000000000D+01  .228600000000D+04  .000000000000D+00
     .240000000000D+01  .000000000000D+00 -.111758708954D-07  .520000000000D+02
     .648000000000D+05  .400000000000D+01
27 23 10 29 20  0  0.0 -.624530948699D-04 -.557065504836D-11  .000000000000D+00
     .470000000000D+02  .127500000000D+02  .462304971143D-08 -.182483645025D+01
     .769272446632D-06  .117387293139D-01  .227242708206D-06  .515366995811D+04
     .720000000000D+05  .137835741043D-06 -.155520779797D+01 -.102445483208D-06
     .964987176161D+00  .377093750000D+03  .741911314281D+00 -.835856245339D-08
     .575023952056D-10  .100000000000D+01  .228600000000D+04  .000000000000D+00
     .240000000000D+01  .000000000000D+00  .139698386192D-08  .470000000000D+02
     .648000000000D+05  .400000000000D+01
30 23 10 29 20  0  0.0 -.473692081869D-03  .386535248253D-11  .000000000000D+00
     .410000000000D+02 -.114062500000D+02  .523950396066D-08  .143134121635D+01
    -.510364770889D-06  .658772746101D-02  .103749334812D-04  .515374509811D+04
     .720000000000D+05 -.167638063431D-07  .264418287262D+01  .163912773132D-06
     .935707570079D+00  .168312500000D+03 -.255265421364D+01 -.831391773662D-08
    -.627526138983D-09  .100000000000D+01  .228600000000D+04  .000000000000D+00
     .240000000000D+01  .000000000000D+00  .372529029846D-08  .410000000000D+02
     .648000000000D+05  .400000000000D+01
26 23 10 29 20  0  0.0  .220140907913D-03 -.250111042988D-11  .000000000000D+00
     .420000000000D+02  .116125000000D+03  .506056793582D-08 -.975327951581D-01
     .607781112194D-05  .841796386521D-02  .957027077675D-05  .515378017807D+04
     .720000000000D+05  .558793544769D-07 -.267081016142D+01  .987201929092D-07
     .933029209920D+00  .177687500000D+03  .485550078184D+00 -.838999233400D-08
     .535736601294D-11  .100000000000D+01  .228600000000D+04  .000000000000D+00
     .240000000000D+01  .000000000000D+00  .698491930962D-08  .420000000000D+02
     .648000000000D+05  .400000000000D+01
25 23 10 29 20  0  0.0  .475029461086D-03  .170530256582D-11  .000000000000D+00
     .220000000000D+02  .138125000000D+03  .458090509880D-08  .669841003281D+00
     .731088221073D-05  .113423839211D-01  .103674829006D-04  .515367397308D+04
     .720000000000D+05 -.102445483208D-06 -.261225472358D+01  .100582838058D-06
     .952215781369D+00  .173687500000D+03  .105534138988D+01 -.831106047474D-08
     .392873507616D-10  .100000000000D+01  .228600000000D+04  .000000000000D+00
     .240000000000D+01  .000000000000D+00  .558793544769D-08  .220000000000D+02
     .648000000000D+05  .400000000000D+01
19 23 10 29 20  0  0.0  .391711946577D-03  .522959453519D-11  .000000000000D+00
     .380000000000D+02 -.149687500000D+02  .473876881731D-08  .177090565196D+00
    -.970438122749D-06  .936340529006D-02  .290572643280D-06  .515365532875D+04
     .720000000000D+05  .484287738800D-07 -.144391238740D+01 -.167638063431D-06
     .970837302173D+00  .384250000000D+03  .243959973770D+01 -.869250493486D-08
    -.178578867098D-09  .100000000000D+01  .228600000000D+04  .000000000000D+00
     .240000000000D+01  .000000000000D+00 -.153668224812D-07  .380000000000D+02
     .648000000000D+05  .400000000000D+01
12 23 10 29 20  0  0.0 -.441293697804D-03 -.420641299570D-11  .000000000000D+00
     .106000000000D+03  .148500000000D+03  .433553773541D-08  .858582942946D+00
     .765360891819D-05  .866198015865D-02  .937096774578D-05  .515377838135D+04
     .720000000000D+05 -.132247805595D-06 -.252814022120D+01  .931322574615D-08
     .964351915688D+00  .200781250000D+03  .139542475617D+01 -.816569727693D-08
     .150363406097D-09  .100000000000D+01  .228600000000D+04  .000000000000D+00
     .240000000000D+01  .000000000000D+00 -.125728547573D-07  .106000000000D+03
     .648000000000D+05  .400000000000D+01
10 23 10 29 20  0  0.0 -.593089498580D-04 -.147792889038D-11  .000000000000D+00
     .130000000000D+03 -.110625000000D+02  .388337604391D-08  .128229843048D+00
    -.484287738800D-06  .899174530059D-02  .110920518637D-04  .515368754196D+04
     .720000000000D+05  .447034835815D-07  .543163750802D+00  .169500708580D-06
     .981089342835D+00  .178562500000D+03 -.243613478698D+01 -.769853496060D-08
     .614668460551D-09  .100000000000D+01  .228600000000D+04  .000000000000D+00
     .340000000000D+01  .000000000000D+00  .232830643654D-08  .130000000000D+03
     .648000000000D+05  .400000000000D+01
29 23 10 29 20  0  0.0 -.610216520727D-03 -.113686837722D-12  .000000000000D+00
     .860000000000D+02  .596875000000D+01  .461876381862D-08 -.200589708400D+01
     .217929482460D-06  .254161539488D-02 -.428408384323D-07  .515369258499D+04
     .720000000000D+05 -.106170773506D-06 -.147389694883D+01  .186264514923D-07
     .974037690019D+00  .386812500000D+03  .257940319235D+01 -.851642617191D-08
    -.957182727646D-10  .100000000000D+01  .228600000000D+04  .000000000000D+00
     .240000000000D+01  .000000000000D+00 -.977888703346D-08  .860000000000D+02
     .648000000000D+05  .400000000000D+01
24 23 10 29 20  0  0.0 -.358530320227D-03 -.943600753089D-11  .000000000000D+00
     .890000000000D+02 -.314687500000D+02  .516557230968D-08  .255117253656D+01
    -.174343585968D-05  .147590147099D-01  .101365149021D-04  .515362968636D+04
     .720000000000D+05  .279396772385D-07  .254707271011D+01 -.283122062683D-06
     .934121481612D+00  .168031250000D+03  .936640281296D+00 -.798818988303D-08
    -.648241287566D-09  .100000000000D+01  .228600000000D+04  .000000000000D+00
     .240000000000D+01  .000000000000D+00  .232830643654D-08  .890000000000D+02
     .648000000000D+05  .400000000000D+01
16 23 10 29 20  0  0.0 -.431045889854D-03  .636646291241D-11  .000000000000D+00
     .960000000000D+02  .128812500000D+03  .432982321166D-08 -.914962171641D+00
     .685080885887D-05  .135485230712D-01  .796280801296D-05  .515368680763D+04
     .720000000000D+05  .197440385818D-06 -.251003894771D+01  .229105353355D-06
     .963943515774D+00  .228750000000D+03  .799100137934D+00 -.809355141462D-08
     .123576576032D-09  .100000000000D+01  .228600000000D+04  .000000000000D+00
     .240000000000D+01  .000000000000D+00 -.102445483208D-07  .960000000000D+02
     .648000000000D+05  .400000000000D+01
21 23 10 29 20  0  0.0  .145601108670D-03 -.909494701773D-12  .000000000000D+00
     .940000000000D+02 -.131093750000D+03  .426124892669D-08 -.188618319138D+01
    -.657700002193D-05  .248206874821D-01  .769831240177D-05  .515376494980D+04
     .720000000000D+05 -.594183802605D-06 -.590775784594D+00  .763684511185D-07
     .962048074261D+00  .234718750000D+03 -.691004690959D+00 -.813176729218D-08
    -.219294848796D-09  .100000000000D+01  .228600000000D+04  .000000000000D+00
     .240000000000D+01  .000000000000D+00 -.102445483208D-07  .940000000000D+02
     .648000000000D+05  .400000000000D+01
22 23 10 29 20  0  0.0  .936607830226D-04 -.704858393874D-11  .000000000000D+00
     .920000000000D+02  .156937500000D+03  .437946813671D-08 -.132048143060D+01
     .811368227005D-05  .151231974596D-01  .858865678310D-05  .515374094009D+04
     .720000000000D+05 -.316649675369D-06 -.250673815395D+01  .800937414169D-07
     .963215895431D+00  .220312500000D+03 -.117329455672D+01 -.823677166603D-08
     .196436753808D-09  .100000000000D+01  .228600000000D+04  .000000000000D+00
     .340000000000D+01  .000000000000D+00 -.111758708954D-07  .920000000000D+02
     .648000000000D+05  .400000000000D+01
